{
    "links": {
        "self": "http://www.neowsapp.com/rest/v1/neo/3299948?api_key=iIulBulltgU6a56xZRHN4H3l9WmuAYTsLGpBGhQ2"
    },
    "id": "3299948",
    "neo_reference_id": "3299948",
    "name": "(2005 VT7)",
    "designation": "2005 VT7",
    "nasa_jpl_url": "http://ssd.jpl.nasa.gov/sbdb.cgi?sstr=3299948",
    "absolute_magnitude_h": 23.0,
    "estimated_diameter": {
        "kilometers": {
            "estimated_diameter_min": 0.0667659413,
            "estimated_diameter_max": 0.1492931834
        },
        "meters": {
            "estimated_diameter_min": 66.7659413495,
            "estimated_diameter_max": 149.2931834393
        },
        "miles": {
            "estimated_diameter_min": 0.0414864197,
            "estimated_diameter_max": 0.0927664547
        },
        "feet": {
            "estimated_diameter_min": 219.0483710172,
            "estimated_diameter_max": 489.807047955
        }
    },
    "is_potentially_hazardous_asteroid": false,
    "close_approach_data": [
        {
            "close_approach_date": "2005-11-09",
            "close_approach_date_full": "2005-Nov-09 10:05",
            "epoch_date_close_approach": 1131530700000,
            "relative_velocity": {
                "kilometers_per_second": "8.9549755568",
                "kilometers_per_hour": "32237.9120045861",
                "miles_per_hour": "20031.3848230718"
            },
            "miss_distance": {
                "astronomical": "0.0320605199",
                "lunar": "12.4715422411",
                "kilometers": "4796185.488132613",
                "miles": "2980211.4680835394"
            },
            "orbiting_body": "Earth"
        },
        {
            "close_approach_date": "2012-08-01",
            "close_approach_date_full": "2012-Aug-01 22:39",
            "epoch_date_close_approach": 1343860740000,
            "relative_velocity": {
                "kilometers_per_second": "21.4339434584",
                "kilometers_per_hour": "77162.1964503973",
                "miles_per_hour": "47945.5881221927"
            },
            "miss_distance": {
                "astronomical": "0.4710908633",
                "lunar": "183.2543458237",
                "kilometers": "70474189.726141171",
                "miles": "43790630.8972873198"
            },
            "orbiting_body": "Earth"
        },
        {
            "close_approach_date": "2090-08-13",
            "close_approach_date_full": "2090-Aug-13 22:46",
            "epoch_date_close_approach": 3806347560000,
            "relative_velocity": {
                "kilometers_per_second": "16.4316916391",
                "kilometers_per_hour": "59154.0899006419",
                "miles_per_hour": "36756.0510274294"
            },
            "miss_distance": {
                "astronomical": "0.3068044414",
                "lunar": "119.3469277046",
                "kilometers": "45897290.939979818",
                "miles": "28519254.1347167684"
            },
            "orbiting_body": "Earth"
        },
        {
            "close_approach_date": "2168-08-06",
            "close_approach_date_full": "2168-Aug-06 01:41",
            "epoch_date_close_approach": 6267116460000,
            "relative_velocity": {
                "kilometers_per_second": "20.8346368921",
                "kilometers_per_hour": "75004.6928114419",
                "miles_per_hour": "46604.9992638651"
            },
            "miss_distance": {
                "astronomical": "0.4516501665",
                "lunar": "175.6919147685",
                "kilometers": "67565902.893545355",
                "miles": "41983505.257041699"
            },
            "orbiting_body": "Earth"
        }
    ],
    "orbital_data": {
        "orbit_id": "11",
        "orbit_determination_date": "2017-04-06 09:09:52",
        "first_observation_date": "2005-11-14",
        "last_observation_date": "2005-12-04",
        "data_arc_in_days": 20,
        "observations_used": 36,
        "orbit_uncertainty": "7",
        "minimum_orbit_intersection": ".0169954",
        "jupiter_tisserand_invariant": "4.017",
        "epoch_osculation": "2459000.5",
        "eccentricity": ".4479279959773467",
        "semi_major_axis": "1.740340270408387",
        "inclination": "6.791272769583045",
        "ascending_node_longitude": "33.9820821786811",
        "orbital_period": "838.5900039678721",
        "perihelion_distance": ".9607931407656846",
        "perihelion_argument": "345.6006426251225",
        "aphelion_distance": "2.51988740005109",
        "perihelion_time": "2458694.851981335840",
        "mean_anomaly": "131.2122565240036",
        "mean_motion": ".4292920238693809",
        "equinox": "J2000",
        "orbit_class": {
            "orbit_class_type": "APO",
            "orbit_class_description": "Near-Earth asteroid orbits which cross the Earth’s orbit similar to that of 1862 Apollo",
            "orbit_class_range": "a (semi-major axis) > 1.0 AU; q (perihelion) < 1.017 AU"
        }
    },
    "is_sentry_object": false
}